STARLINK-36404          
1 67664U 26022S   26046.25002315 -.02083966  00000+0 -12559-1 0  9995
2 67664  97.2789  79.1460 0001846  75.8123  92.0512 15.80933154  3253
STARLINK-36399          
1 67665U 26022T   26046.25002315 -.02103059  00000+0 -12754-1 0  9999
2 67665  97.2791  79.1485 0001866  77.4401  94.9683 15.80830277  3255
STARLINK-36365          
1 67666U 26022U   26046.25002315 -.02128489  00000+0 -12804-1 0  9990
2 67666  97.2793  79.1519 0001434  99.8446  79.6445 15.81057443  3280
STARLINK-36622          
1 67667U 26022V   26046.25002315 -.01861162  00000+0 -10816-1 0  9993
2 67667  97.2805  79.1548 0001209  91.3546  95.6869 15.81344149  3285
STARLINK-36625          
1 67668U 26022W   26046.25002315 -.01864363  00000+0 -10868-1 0  9997
2 67668  97.2801  79.1581 0001737  70.9767 124.4206 15.81277071  3288
STARLINK-36639          
1 67669U 26022X   26046.25002315 -.01242362  00000+0 -71664-2 0  9999
2 67669  97.2788  79.1617 0001889  94.6378 108.6942 15.81265829  3281
STARLINK-36596          
1 67670U 26022Y   26046.25002315 -.00313578  00000+0 -16850-2 0  9994
2 67670  97.2787  79.1638 0001063 107.3782 102.7310 15.80956079  3287
STARLINK-36297          
1 67671U 26022Z   26046.25002315 -.00178725  00000+0 -94858-3 0  9993
2 67671  97.2777  79.1683 0001248  93.4843 127.8534 15.80883986  3287
STARLINK-36616          
1 67672U 26022AA  26046.25002315 -.00835037  00000+0 -47225-2 0  9995
2 67672  97.2782  79.1663 0001170  73.9527 142.1069 15.81136234  3289
COSMOS 2600             
1 67674U 26023A   26046.27353112  .00073694  00000+0  35583-3 0  9990
2 67674  96.6493 122.6179 0001695  55.7966 304.3465 15.82371861  1509
2026-023B               
1 67675U 26023B   26046.24537672  .00007907  00000+0  34317-3 0  9991
2 67675  96.6406 121.7963 0017616 210.6499 149.3712 15.22412454  1441
2026-023C               
1 67676U 26023C   26046.24502856  .00011539  00000+0  49800-3 0  9997
2 67676  96.6442 121.8092 0018841 200.1154 159.9344 15.22487945  1602
