CCSDS_OMM_VERS = 2.0
CREATION_DATE  = 
ORIGINATOR     = 

OBJECT_NAME    = STARLINK-36404
OBJECT_ID      = 2026-022S
CENTER_NAME    = EARTH
REF_FRAME      = TEME
TIME_SYSTEM    = UTC
MEAN_ELEMENT_THEORY = SGP/SGP4

EPOCH          = 2026-02-15T06:00:02.000160
MEAN_MOTION    = 15.80933154
ECCENTRICITY   = .00018463
INCLINATION    = 97.2789
RA_OF_ASC_NODE = 79.1460
ARG_OF_PERICENTER = 75.8123
MEAN_ANOMALY   = 92.0512

EPHEMERIS_TYPE = 0
CLASSIFICATION_TYPE = U
NORAD_CAT_ID   = 67664
ELEMENT_SET_NO = 999
REV_AT_EPOCH   = 325
BSTAR          = -.12558953E-1
MEAN_MOTION_DOT = -.2083966E-1
MEAN_MOTION_DDOT = 0

CCSDS_OMM_VERS = 2.0
CREATION_DATE  = 
ORIGINATOR     = 

OBJECT_NAME    = STARLINK-36399
OBJECT_ID      = 2026-022T
CENTER_NAME    = EARTH
REF_FRAME      = TEME
TIME_SYSTEM    = UTC
MEAN_ELEMENT_THEORY = SGP/SGP4

EPOCH          = 2026-02-15T06:00:02.000160
MEAN_MOTION    = 15.80830277
ECCENTRICITY   = .00018664
INCLINATION    = 97.2791
RA_OF_ASC_NODE = 79.1485
ARG_OF_PERICENTER = 77.4401
MEAN_ANOMALY   = 94.9683

EPHEMERIS_TYPE = 0
CLASSIFICATION_TYPE = U
NORAD_CAT_ID   = 67665
ELEMENT_SET_NO = 999
REV_AT_EPOCH   = 325
BSTAR          = -.1275443E-1
MEAN_MOTION_DOT = -.2103059E-1
MEAN_MOTION_DDOT = 0

CCSDS_OMM_VERS = 2.0
CREATION_DATE  = 
ORIGINATOR     = 

OBJECT_NAME    = STARLINK-36365
OBJECT_ID      = 2026-022U
CENTER_NAME    = EARTH
REF_FRAME      = TEME
TIME_SYSTEM    = UTC
MEAN_ELEMENT_THEORY = SGP/SGP4

EPOCH          = 2026-02-15T06:00:02.000160
MEAN_MOTION    = 15.81057443
ECCENTRICITY   = .00014345
INCLINATION    = 97.2793
RA_OF_ASC_NODE = 79.1519
ARG_OF_PERICENTER = 99.8446
MEAN_ANOMALY   = 79.6445

EPHEMERIS_TYPE = 0
CLASSIFICATION_TYPE = U
NORAD_CAT_ID   = 67666
ELEMENT_SET_NO = 999
REV_AT_EPOCH   = 328
BSTAR          = -.12803812E-1
MEAN_MOTION_DOT = -.2128489E-1
MEAN_MOTION_DDOT = 0

CCSDS_OMM_VERS = 2.0
CREATION_DATE  = 
ORIGINATOR     = 

OBJECT_NAME    = STARLINK-36622
OBJECT_ID      = 2026-022V
CENTER_NAME    = EARTH
REF_FRAME      = TEME
TIME_SYSTEM    = UTC
MEAN_ELEMENT_THEORY = SGP/SGP4

EPOCH          = 2026-02-15T06:00:02.000160
MEAN_MOTION    = 15.81344149
ECCENTRICITY   = .00012094
INCLINATION    = 97.2805
RA_OF_ASC_NODE = 79.1548
ARG_OF_PERICENTER = 91.3546
MEAN_ANOMALY   = 95.6869

EPHEMERIS_TYPE = 0
CLASSIFICATION_TYPE = U
NORAD_CAT_ID   = 67667
ELEMENT_SET_NO = 999
REV_AT_EPOCH   = 328
BSTAR          = -.10816163E-1
MEAN_MOTION_DOT = -.1861162E-1
MEAN_MOTION_DDOT = 0

CCSDS_OMM_VERS = 2.0
CREATION_DATE  = 
ORIGINATOR     = 

OBJECT_NAME    = STARLINK-36625
OBJECT_ID      = 2026-022W
CENTER_NAME    = EARTH
REF_FRAME      = TEME
TIME_SYSTEM    = UTC
MEAN_ELEMENT_THEORY = SGP/SGP4

EPOCH          = 2026-02-15T06:00:02.000160
MEAN_MOTION    = 15.81277071
ECCENTRICITY   = .00017371
INCLINATION    = 97.2801
RA_OF_ASC_NODE = 79.1581
ARG_OF_PERICENTER = 70.9767
MEAN_ANOMALY   = 124.4206

EPHEMERIS_TYPE = 0
CLASSIFICATION_TYPE = U
NORAD_CAT_ID   = 67668
ELEMENT_SET_NO = 999
REV_AT_EPOCH   = 328
BSTAR          = -.10867962E-1
MEAN_MOTION_DOT = -.1864363E-1
MEAN_MOTION_DDOT = 0

CCSDS_OMM_VERS = 2.0
CREATION_DATE  = 
ORIGINATOR     = 

OBJECT_NAME    = STARLINK-36639
OBJECT_ID      = 2026-022X
CENTER_NAME    = EARTH
REF_FRAME      = TEME
TIME_SYSTEM    = UTC
MEAN_ELEMENT_THEORY = SGP/SGP4

EPOCH          = 2026-02-15T06:00:02.000160
MEAN_MOTION    = 15.81265829
ECCENTRICITY   = .00018898
INCLINATION    = 97.2788
RA_OF_ASC_NODE = 79.1617
ARG_OF_PERICENTER = 94.6378
MEAN_ANOMALY   = 108.6942

EPHEMERIS_TYPE = 0
CLASSIFICATION_TYPE = U
NORAD_CAT_ID   = 67669
ELEMENT_SET_NO = 999
REV_AT_EPOCH   = 328
BSTAR          = -.71664483E-2
MEAN_MOTION_DOT = -.1242362E-1
MEAN_MOTION_DDOT = 0

CCSDS_OMM_VERS = 2.0
CREATION_DATE  = 
ORIGINATOR     = 

OBJECT_NAME    = STARLINK-36596
OBJECT_ID      = 2026-022Y
CENTER_NAME    = EARTH
REF_FRAME      = TEME
TIME_SYSTEM    = UTC
MEAN_ELEMENT_THEORY = SGP/SGP4

EPOCH          = 2026-02-15T06:00:02.000160
MEAN_MOTION    = 15.80956079
ECCENTRICITY   = .00010632
INCLINATION    = 97.2787
RA_OF_ASC_NODE = 79.1638
ARG_OF_PERICENTER = 107.3782
MEAN_ANOMALY   = 102.7310

EPHEMERIS_TYPE = 0
CLASSIFICATION_TYPE = U
NORAD_CAT_ID   = 67670
ELEMENT_SET_NO = 999
REV_AT_EPOCH   = 328
BSTAR          = -.16849799E-2
MEAN_MOTION_DOT = -.313578E-2
MEAN_MOTION_DDOT = 0

CCSDS_OMM_VERS = 2.0
CREATION_DATE  = 
ORIGINATOR     = 

OBJECT_NAME    = STARLINK-36297
OBJECT_ID      = 2026-022Z
CENTER_NAME    = EARTH
REF_FRAME      = TEME
TIME_SYSTEM    = UTC
MEAN_ELEMENT_THEORY = SGP/SGP4

EPOCH          = 2026-02-15T06:00:02.000160
MEAN_MOTION    = 15.80883986
ECCENTRICITY   = .00012484
INCLINATION    = 97.2777
RA_OF_ASC_NODE = 79.1683
ARG_OF_PERICENTER = 93.4843
MEAN_ANOMALY   = 127.8534

EPHEMERIS_TYPE = 0
CLASSIFICATION_TYPE = U
NORAD_CAT_ID   = 67671
ELEMENT_SET_NO = 999
REV_AT_EPOCH   = 328
BSTAR          = -.94857683E-3
MEAN_MOTION_DOT = -.178725E-2
MEAN_MOTION_DDOT = 0

CCSDS_OMM_VERS = 2.0
CREATION_DATE  = 
ORIGINATOR     = 

OBJECT_NAME    = STARLINK-36616
OBJECT_ID      = 2026-022AA
CENTER_NAME    = EARTH
REF_FRAME      = TEME
TIME_SYSTEM    = UTC
MEAN_ELEMENT_THEORY = SGP/SGP4

EPOCH          = 2026-02-15T06:00:02.000160
MEAN_MOTION    = 15.81136234
ECCENTRICITY   = .00011709
INCLINATION    = 97.2782
RA_OF_ASC_NODE = 79.1663
ARG_OF_PERICENTER = 73.9527
MEAN_ANOMALY   = 142.1069

EPHEMERIS_TYPE = 0
CLASSIFICATION_TYPE = U
NORAD_CAT_ID   = 67672
ELEMENT_SET_NO = 999
REV_AT_EPOCH   = 328
BSTAR          = -.4722534E-2
MEAN_MOTION_DOT = -.835037E-2
MEAN_MOTION_DDOT = 0

CCSDS_OMM_VERS = 2.0
CREATION_DATE  = 
ORIGINATOR     = 

OBJECT_NAME    = COSMOS 2600
OBJECT_ID      = 2026-023A
CENTER_NAME    = EARTH
REF_FRAME      = TEME
TIME_SYSTEM    = UTC
MEAN_ELEMENT_THEORY = SGP/SGP4

EPOCH          = 2026-02-15T06:33:53.088768
MEAN_MOTION    = 15.82371861
ECCENTRICITY   = .00016952
INCLINATION    = 96.6493
RA_OF_ASC_NODE = 122.6179
ARG_OF_PERICENTER = 55.7966
MEAN_ANOMALY   = 304.3465

EPHEMERIS_TYPE = 0
CLASSIFICATION_TYPE = U
NORAD_CAT_ID   = 67674
ELEMENT_SET_NO = 999
REV_AT_EPOCH   = 150
BSTAR          = .35583053E-3
MEAN_MOTION_DOT = .73694E-3
MEAN_MOTION_DDOT = 0

CCSDS_OMM_VERS = 2.0
CREATION_DATE  = 
ORIGINATOR     = 

OBJECT_NAME    = 2026-023B
OBJECT_ID      = 2026-023B
CENTER_NAME    = EARTH
REF_FRAME      = TEME
TIME_SYSTEM    = UTC
MEAN_ELEMENT_THEORY = SGP/SGP4

EPOCH          = 2026-02-15T05:53:20.548608
MEAN_MOTION    = 15.22412454
ECCENTRICITY   = .00176161
INCLINATION    = 96.6406
RA_OF_ASC_NODE = 121.7963
ARG_OF_PERICENTER = 210.6499
MEAN_ANOMALY   = 149.3712

EPHEMERIS_TYPE = 0
CLASSIFICATION_TYPE = U
NORAD_CAT_ID   = 67675
ELEMENT_SET_NO = 999
REV_AT_EPOCH   = 144
BSTAR          = .34316675E-3
MEAN_MOTION_DOT = .7907E-4
MEAN_MOTION_DDOT = 0

CCSDS_OMM_VERS = 2.0
CREATION_DATE  = 
ORIGINATOR     = 

OBJECT_NAME    = 2026-023C
OBJECT_ID      = 2026-023C
CENTER_NAME    = EARTH
REF_FRAME      = TEME
TIME_SYSTEM    = UTC
MEAN_ELEMENT_THEORY = SGP/SGP4

EPOCH          = 2026-02-15T05:52:50.467584
MEAN_MOTION    = 15.22487945
ECCENTRICITY   = .00188412
INCLINATION    = 96.6442
RA_OF_ASC_NODE = 121.8092
ARG_OF_PERICENTER = 200.1154
MEAN_ANOMALY   = 159.9344

EPHEMERIS_TYPE = 0
CLASSIFICATION_TYPE = U
NORAD_CAT_ID   = 67676
ELEMENT_SET_NO = 999
REV_AT_EPOCH   = 160
BSTAR          = .4979989E-3
MEAN_MOTION_DOT = .11539E-3
MEAN_MOTION_DDOT = 0

